[{"OBJECT_NAME":"APRIZESAT 7","OBJECT_ID":"2013-066A","EPOCH":"2026-03-09T22:14:12.854688","MEAN_MOTION":14.91283287,"ECCENTRICITY":0.00359789,"INCLINATION":97.7595,"RA_OF_ASC_NODE":23.6578,"ARG_OF_PERICENTER":178.0186,"MEAN_ANOMALY":182.1181,"EPHEMERIS_TYPE":0,"CLASSIFICATION_TYPE":"U","NORAD_CAT_ID":39416,"ELEMENT_SET_NO":999,"REV_AT_EPOCH":66643,"BSTAR":0.00016772005,"MEAN_MOTION_DOT":1.633e-5,"MEAN_MOTION_DDOT":0},{"OBJECT_NAME":"STARLINK-5289","OBJECT_ID":"2023-010K","EPOCH":"2026-03-09T22:19:21.404640","MEAN_MOTION":14.98336568,"ECCENTRICITY":0.00029853,"INCLINATION":70.0002,"RA_OF_ASC_NODE":43.7827,"ARG_OF_PERICENTER":267.5214,"MEAN_ANOMALY":92.5603,"EPHEMERIS_TYPE":0,"CLASSIFICATION_TYPE":"U","NORAD_CAT_ID":55278,"ELEMENT_SET_NO":999,"REV_AT_EPOCH":17281,"BSTAR":6.7435226e-5,"MEAN_MOTION_DOT":7.12e-6,"MEAN_MOTION_DDOT":0}]
